{
  "type": "FeatureCollection",
  "features": [
    {
      "type": "Feature",
      "properties": {
        "norad_id": 44794,
        "name": "BEIDOU-3 M21 (C43)",
        "group": "beidou",
        "lat": -9.258152238152588,
        "lon": 132.8277935294746,
        "alt_km": 21541.295737297613,
        "timestamp": "2025-12-20T16:47:36.552271+00:00",
        "meta_object_name": "BEIDOU-3 M21 (C43)",
        "meta_object_id": "2019-078B",
        "meta_epoch": "2025-12-16T15:43:55.727904",
        "meta_mean_motion": 1.86227668,
        "meta_eccentricity": 0.00041169,
        "meta_inclination": 54.078,
        "meta_ra_of_asc_node": 306.2132,
        "meta_arg_of_pericenter": 11.942,
        "meta_mean_anomaly": 348.0544,
        "meta_ephemeris_type": 0,
        "meta_classification_type": "U",
        "meta_norad_cat_id": 44794,
        "meta_element_set_no": 999,
        "meta_rev_at_epoch": 4125,
        "meta_bstar": 0,
        "meta_mean_motion_dot": -9.5e-07,
        "meta_mean_motion_ddot": 0,
        "tle_line1": "1 44794U 19078B   25350.65550611 -.00000095  00000+0  00000+0 0  9990",
        "tle_line2": "2 44794  54.0780 306.2132 0004116  11.9420 348.0544  1.86227668 41256"
      },
      "geometry": {
        "type": "Point",
        "coordinates": [
          132.8277935294746,
          -9.258152238152588
        ]
      }
    },
    {
      "type": "Feature",
      "properties": {
        "norad_id": 44864,
        "name": "BEIDOU-3 M19 (C41)",
        "group": "beidou",
        "lat": 22.546679471575573,
        "lon": 84.7132894426911,
        "alt_km": 21536.241530972147,
        "timestamp": "2025-12-20T16:47:36.552282+00:00",
        "meta_object_name": "BEIDOU-3 M19 (C41)",
        "meta_object_id": "2019-090A",
        "meta_epoch": "2025-12-20T02:47:03.427296",
        "meta_mean_motion": 1.8623162,
        "meta_eccentricity": 0.00182866,
        "meta_inclination": 56.399,
        "meta_ra_of_asc_node": 68.717,
        "meta_arg_of_pericenter": 285.0022,
        "meta_mean_anomaly": 70.8825,
        "meta_ephemeris_type": 0,
        "meta_classification_type": "U",
        "meta_norad_cat_id": 44864,
        "meta_element_set_no": 999,
        "meta_rev_at_epoch": 4089,
        "meta_bstar": 0,
        "meta_mean_motion_dot": -4.6e-07,
        "meta_mean_motion_ddot": 0,
        "tle_line1": "1 44864U 19090A   25354.11601189 -.00000046  00000+0  00000+0 0  9990",
        "tle_line2": "2 44864  56.3990  68.7170 0018286 285.0022  70.8825  1.86231620 40893"
      },
      "geometry": {
        "type": "Point",
        "coordinates": [
          84.7132894426911,
          22.546679471575573
        ]
      }
    },
    {
      "type": "Feature",
      "properties": {
        "norad_id": 44865,
        "name": "BEIDOU-3 M20 (C42)",
        "group": "beidou",
        "lat": 48.01869852488315,
        "lon": -158.78580668169377,
        "alt_km": 21565.415123492025,
        "timestamp": "2025-12-20T16:47:36.552293+00:00",
        "meta_object_name": "BEIDOU-3 M20 (C42)",
        "meta_object_id": "2019-090B",
        "meta_epoch": "2025-12-20T13:54:30.736224",
        "meta_mean_motion": 1.86231557,
        "meta_eccentricity": 0.0015475,
        "meta_inclination": 56.4009,
        "meta_ra_of_asc_node": 68.736,
        "meta_arg_of_pericenter": 297.1994,
        "meta_mean_anomaly": 99.0588,
        "meta_ephemeris_type": 0,
        "meta_classification_type": "U",
        "meta_norad_cat_id": 44865,
        "meta_element_set_no": 999,
        "meta_rev_at_epoch": 4089,
        "meta_bstar": 0,
        "meta_mean_motion_dot": -4.2e-07,
        "meta_mean_motion_ddot": 0,
        "tle_line1": "1 44865U 19090B   25354.57952241 -.00000042  00000+0  00000+0 0  9995",
        "tle_line2": "2 44865  56.4009  68.7360 0015475 297.1994  99.0588  1.86231557 40894"
      },
      "geometry": {
        "type": "Point",
        "coordinates": [
          -158.78580668169377,
          48.01869852488315
        ]
      }
    },
    {
      "type": "Feature",
      "properties": {
        "norad_id": 45344,
        "name": "BEIDOU-3 G2 (C60)",
        "group": "beidou",
        "lat": 0.7764892932634933,
        "lon": 61.453149764965886,
        "alt_km": 35792.79650488068,
        "timestamp": "2025-12-20T16:47:36.552304+00:00",
        "meta_object_name": "BEIDOU-3 G2 (C60)",
        "meta_object_id": "2020-017A",
        "meta_epoch": "2025-12-19T13:38:45.370752",
        "meta_mean_motion": 1.00273166,
        "meta_eccentricity": 0.0002079,
        "meta_inclination": 2.5096,
        "meta_ra_of_asc_node": 44.0024,
        "meta_arg_of_pericenter": 233.0917,
        "meta_mean_anomaly": 96.0359,
        "meta_ephemeris_type": 0,
        "meta_classification_type": "U",
        "meta_norad_cat_id": 45344,
        "meta_element_set_no": 999,
        "meta_rev_at_epoch": 2145,
        "meta_bstar": 0,
        "meta_mean_motion_dot": -1.18e-06,
        "meta_mean_motion_ddot": 0,
        "tle_line1": "1 45344U 20017A   25353.56858068 -.00000118  00000+0  00000+0 0  9993",
        "tle_line2": "2 45344   2.5096  44.0024 0002079 233.0917  96.0359  1.00273166 21451"
      },
      "geometry": {
        "type": "Point",
        "coordinates": [
          61.453149764965886,
          0.7764892932634933
        ]
      }
    },
    {
      "type": "Feature",
      "properties": {
        "norad_id": 45807,
        "name": "BEIDOU-3 G3 (C61)",
        "group": "beidou",
        "lat": 0.8896255389597122,
        "lon": 92.05709276263488,
        "alt_km": 35779.70979665354,
        "timestamp": "2025-12-20T16:47:36.552316+00:00",
        "meta_object_name": "BEIDOU-3 G3 (C61)",
        "meta_object_id": "2020-040A",
        "meta_epoch": "2025-12-20T03:16:38.784864",
        "meta_mean_motion": 1.00270592,
        "meta_eccentricity": 0.00064635,
        "meta_inclination": 2.0084,
        "meta_ra_of_asc_node": 66.6439,
        "meta_arg_of_pericenter": 309.446,
        "meta_mean_anomaly": 232.6241,
        "meta_ephemeris_type": 0,
        "meta_classification_type": "U",
        "meta_norad_cat_id": 45807,
        "meta_element_set_no": 999,
        "meta_rev_at_epoch": 2027,
        "meta_bstar": 0,
        "meta_mean_motion_dot": -3.31e-06,
        "meta_mean_motion_ddot": 0,
        "tle_line1": "1 45807U 20040A   25354.13656001 -.00000331  00000+0  00000+0 0  9997",
        "tle_line2": "2 45807   2.0084  66.6439 0006463 309.4460 232.6241  1.00270592 20276"
      },
      "geometry": {
        "type": "Point",
        "coordinates": [
          92.05709276263488,
          0.8896255389597122
        ]
      }
    },
    {
      "type": "Feature",
      "properties": {
        "norad_id": 56564,
        "name": "BEIDOU-3 G4 (C62)",
        "group": "beidou",
        "lat": -0.24280181865702388,
        "lon": 141.46581876216058,
        "alt_km": 35776.128338160575,
        "timestamp": "2025-12-20T16:47:36.552328+00:00",
        "meta_object_name": "BEIDOU-3 G4 (C62)",
        "meta_object_id": "2023-066A",
        "meta_epoch": "2025-12-20T13:35:05.692704",
        "meta_mean_motion": 1.00271511,
        "meta_eccentricity": 0.0002708,
        "meta_inclination": 0.7987,
        "meta_ra_of_asc_node": 302.643,
        "meta_arg_of_pericenter": 226.5049,
        "meta_mean_anomaly": 284.0851,
        "meta_ephemeris_type": 0,
        "meta_classification_type": "U",
        "meta_norad_cat_id": 56564,
        "meta_element_set_no": 999,
        "meta_rev_at_epoch": 960,
        "meta_bstar": 0,
        "meta_mean_motion_dot": -8.6e-07,
        "meta_mean_motion_ddot": 0,
        "tle_line1": "1 56564U 23066A   25354.56603811 -.00000086  00000+0  00000+0 0  9995",
        "tle_line2": "2 56564   0.7987 302.6430 0002708 226.5049 284.0851  1.00271511  9603"
      },
      "geometry": {
        "type": "Point",
        "coordinates": [
          141.46581876216058,
          -0.24280181865702388
        ]
      }
    },
    {
      "type": "Feature",
      "properties": {
        "norad_id": 58654,
        "name": "BEIDOU-3 M28 (C50)",
        "group": "beidou",
        "lat": 32.79785003492426,
        "lon": -137.81775254468872,
        "alt_km": 21529.25702419519,
        "timestamp": "2025-12-20T16:47:36.552340+00:00",
        "meta_object_name": "BEIDOU-3 M28 (C50)",
        "meta_object_id": "2023-207A",
        "meta_epoch": "2025-12-18T08:16:11.764704",
        "meta_mean_motion": 1.86229821,
        "meta_eccentricity": 0.00026501,
        "meta_inclination": 55.5892,
        "meta_ra_of_asc_node": 68.4116,
        "meta_arg_of_pericenter": 272.4264,
        "meta_mean_anomaly": 87.5728,
        "meta_ephemeris_type": 0,
        "meta_classification_type": "U",
        "meta_norad_cat_id": 58654,
        "meta_element_set_no": 999,
        "meta_rev_at_epoch": 1347,
        "meta_bstar": 0,
        "meta_mean_motion_dot": -6.6e-07,
        "meta_mean_motion_ddot": 0,
        "tle_line1": "1 58654U 23207A   25352.34458061 -.00000066  00000+0  00000+0 0  9991",
        "tle_line2": "2 58654  55.5892  68.4116 0002650 272.4264  87.5728  1.86229821 13471"
      },
      "geometry": {
        "type": "Point",
        "coordinates": [
          -137.81775254468872,
          32.79785003492426
        ]
      }
    }
  ]
}